start=new Date('2022-06-13T00:00:00.000Z').valueOf();
sats=[{"FILE":"3493781","MEAN_ELEMENT_THEORY":"SGP4","TLE_LINE2":"2 46137  53.0556 308.3114 0001946  54.4025 305.7145 15.06395242100471","CENTER_NAME":"EARTH","MEAN_MOTION_DDOT":"0.0000000000000","PERIOD":"95.592","BSTAR":"0.00003423600000","MEAN_ANOMALY":"305.7145","RA_OF_ASC_NODE":"308.3114","APOAPSIS":"548.576","MEAN_MOTION":"15.06395242","GP_ID":"206012249","COUNTRY_CODE":"US","SITE":"AFETR","ELEMENT_SET_NO":"999","EPOCH":"2022-06-12T19:22:34.982976","DECAY_DATE":null,"NORAD_CAT_ID":"46137","EPHEMERIS_TYPE":"0","ECCENTRICITY":"0.00019460","PERIAPSIS":"545.880","LAUNCH_DATE":"2020-08-18","OBJECT_ID":"2020-057W","TLE_LINE1":"1 46137U 20057W   22163.80734934  .00000228  00000-0  34236-4 0  9991","SEMIMAJOR_AXIS":"6925.363","REF_FRAME":"TEME","TIME_SYSTEM":"UTC","REV_AT_EPOCH":"10047","INCLINATION":"53.0556","OBJECT_NAME":"STARLINK-1586","RCS_SIZE":"LARGE","OBJECT_TYPE":"PAYLOAD","CLASSIFICATION_TYPE":"U","MEAN_MOTION_DOT":"0.00000228","ARG_OF_PERICENTER":"54.4025"},{"MEAN_MOTION_DOT":"0.00000095","ARG_OF_PERICENTER":"68.9578","CLASSIFICATION_TYPE":"U","OBJECT_TYPE":"PAYLOAD","INCLINATION":"53.0565","REF_FRAME":"TEME","TIME_SYSTEM":"UTC","REV_AT_EPOCH":"10018","OBJECT_NAME":"STARLINK-1590","RCS_SIZE":"LARGE","TLE_LINE1":"1 46138U 20057X   22163.73914782  .00000095  00000-0  25263-4 0  9997","LAUNCH_DATE":"2020-08-18","OBJECT_ID":"2020-057X","PERIAPSIS":"546.114","SEMIMAJOR_AXIS":"6925.339","NORAD_CAT_ID":"46138","ECCENTRICITY":"0.00015740","EPHEMERIS_TYPE":"0","ELEMENT_SET_NO":"999","EPOCH":"2022-06-12T17:44:22.371648","DECAY_DATE":null,"COUNTRY_CODE":"US","GP_ID":"206012499","SITE":"AFETR","RA_OF_ASC_NODE":"328.6098","APOAPSIS":"548.294","MEAN_MOTION":"15.06403211","TLE_LINE2":"2 46138  53.0565 328.6098 0001574  68.9578 291.1579 15.06403211100181","FILE":"3493781","MEAN_ELEMENT_THEORY":"SGP4","BSTAR":"0.00002526300000","PERIOD":"95.592","MEAN_ANOMALY":"291.1579","CENTER_NAME":"EARTH","MEAN_MOTION_DDOT":"0.0000000000000"},{"SITE":"AFETR","COUNTRY_CODE":"US","GP_ID":"205982289","DECAY_DATE":null,"ELEMENT_SET_NO":"999","EPOCH":"2022-06-12T18:21:32.198400","CENTER_NAME":"EARTH","MEAN_MOTION_DDOT":"0.0000000000000","PERIOD":"95.592","MEAN_ANOMALY":"308.7306","BSTAR":"0.00002515700000","FILE":"3493326","MEAN_ELEMENT_THEORY":"SGP4","TLE_LINE2":"2 46140  53.0551 288.4846 0001790  51.3843 308.7306 15.06399894101415","MEAN_MOTION":"15.06399894","RA_OF_ASC_NODE":"288.4846","APOAPSIS":"548.454","OBJECT_NAME":"STARLINK-1594","RCS_SIZE":"LARGE","REF_FRAME":"TEME","REV_AT_EPOCH":"10141","TIME_SYSTEM":"UTC","INCLINATION":"53.0551","OBJECT_TYPE":"PAYLOAD","CLASSIFICATION_TYPE":"U","MEAN_MOTION_DOT":"0.00000093","ARG_OF_PERICENTER":"51.3843","EPHEMERIS_TYPE":"0","ECCENTRICITY":"0.00017900","NORAD_CAT_ID":"46140","SEMIMAJOR_AXIS":"6925.349","PERIAPSIS":"545.974","LAUNCH_DATE":"2020-08-18","OBJECT_ID":"2020-057Z","TLE_LINE1":"1 46140U 20057Z   22163.76495600  .00000093  00000-0  25157-4 0  9996"},{"SEMIMAJOR_AXIS":"6925.308","LAUNCH_DATE":"2020-08-18","PERIAPSIS":"546.404","OBJECT_ID":"2020-057AA","TLE_LINE1":"1 46141U 20057AA  22163.74282798 -.00000972  00000-0 -46346-4 0  9998","EPHEMERIS_TYPE":"0","ECCENTRICITY":"0.00011110","NORAD_CAT_ID":"46141","CLASSIFICATION_TYPE":"U","OBJECT_TYPE":"PAYLOAD","ARG_OF_PERICENTER":"68.8832","MEAN_MOTION_DOT":"-0.00000972","RCS_SIZE":"LARGE","OBJECT_NAME":"STARLINK-1596","REV_AT_EPOCH":"10074","TIME_SYSTEM":"UTC","REF_FRAME":"TEME","INCLINATION":"53.0550","MEAN_MOTION":"15.06413169","APOAPSIS":"547.943","RA_OF_ASC_NODE":"288.5826","MEAN_MOTION_DDOT":"0.0000000000000","CENTER_NAME":"EARTH","MEAN_ANOMALY":"291.2276","PERIOD":"95.591","BSTAR":"-0.00004634600000","MEAN_ELEMENT_THEORY":"SGP4","FILE":"3493781","TLE_LINE2":"2 46141  53.0550 288.5826 0001111  68.8832 291.2276 15.06413169100741","DECAY_DATE":null,"EPOCH":"2022-06-12T17:49:40.337472","ELEMENT_SET_NO":"999","SITE":"AFETR","GP_ID":"206012996","COUNTRY_CODE":"US"},{"MEAN_MOTION":"15.06404917","RA_OF_ASC_NODE":"328.2157","APOAPSIS":"548.072","PERIOD":"95.592","BSTAR":"0.00019625000000","MEAN_ANOMALY":"285.1562","CENTER_NAME":"EARTH","MEAN_MOTION_DDOT":"0.0000000000000","TLE_LINE2":"2 46142  53.0557 328.2157 0001261  74.9566 285.1562 15.06404917100196","FILE":"3493781","MEAN_ELEMENT_THEORY":"SGP4","DECAY_DATE":null,"ELEMENT_SET_NO":"999","EPOCH":"2022-06-12T19:51:45.161856","SITE":"AFETR","GP_ID":"206011749","COUNTRY_CODE":"US","SEMIMAJOR_AXIS":"6925.333","TLE_LINE1":"1 46142U 20057AB  22163.82760604  .00002643  00000-0  19625-3 0  9999","OBJECT_ID":"2020-057AB","LAUNCH_DATE":"2020-08-18","PERIAPSIS":"546.325","ECCENTRICITY":"0.00012610","EPHEMERIS_TYPE":"0","NORAD_CAT_ID":"46142","MEAN_MOTION_DOT":"0.00002643","ARG_OF_PERICENTER":"74.9566","OBJECT_TYPE":"PAYLOAD","CLASSIFICATION_TYPE":"U","OBJECT_NAME":"STARLINK-1597","RCS_SIZE":"LARGE","INCLINATION":"53.0557","REF_FRAME":"TEME","TIME_SYSTEM":"UTC","REV_AT_EPOCH":"10019"},{"LAUNCH_DATE":"2020-08-18","PERIAPSIS":"546.271","OBJECT_ID":"2020-057AD","TLE_LINE1":"1 46144U 20057AD  22163.79260292 -.00000413  00000-0 -88508-5 0  9998","SEMIMAJOR_AXIS":"6925.359","NORAD_CAT_ID":"46144","EPHEMERIS_TYPE":"0","ECCENTRICITY":"0.00013760","CLASSIFICATION_TYPE":"U","OBJECT_TYPE":"PAYLOAD","MEAN_MOTION_DOT":"-0.00000413","ARG_OF_PERICENTER":"86.3141","REF_FRAME":"TEME","TIME_SYSTEM":"UTC","REV_AT_EPOCH":"10114","INCLINATION":"53.0547","OBJECT_NAME":"STARLINK-1606","RCS_SIZE":"LARGE","RA_OF_ASC_NODE":"308.3781","APOAPSIS":"548.177","MEAN_MOTION":"15.06396495","FILE":"3493329","MEAN_ELEMENT_THEORY":"SGP4","TLE_LINE2":"2 46144  53.0547 308.3781 0001376  86.3141 273.8005 15.06396495101145","CENTER_NAME":"EARTH","MEAN_MOTION_DDOT":"0.0000000000000","MEAN_ANOMALY":"273.8005","PERIOD":"95.592","BSTAR":"-0.00000885080000","ELEMENT_SET_NO":"999","EPOCH":"2022-06-12T19:01:20.892288","DECAY_DATE":null,"GP_ID":"205982342","COUNTRY_CODE":"US","SITE":"AFETR"},{"SITE":"AFETR","COUNTRY_CODE":"US","GP_ID":"205982008","DECAY_DATE":null,"EPOCH":"2022-06-12T20:07:40.856448","ELEMENT_SET_NO":"999","MEAN_MOTION_DDOT":"0.0000000000000","CENTER_NAME":"EARTH","PERIOD":"95.592","BSTAR":"0.00009679400000","MEAN_ANOMALY":"295.6342","MEAN_ELEMENT_THEORY":"SGP4","FILE":"3493332","TLE_LINE2":"2 46146  53.0573 328.1553 0001547  64.4807 295.6342 15.06407311100863","MEAN_MOTION":"15.06407311","APOAPSIS":"548.262","RA_OF_ASC_NODE":"328.1553","RCS_SIZE":"LARGE","OBJECT_NAME":"STARLINK-1608","TIME_SYSTEM":"UTC","REV_AT_EPOCH":"10086","REF_FRAME":"TEME","INCLINATION":"53.0573","OBJECT_TYPE":"PAYLOAD","CLASSIFICATION_TYPE":"U","ARG_OF_PERICENTER":"64.4807","MEAN_MOTION_DOT":"0.00001161","EPHEMERIS_TYPE":"0","ECCENTRICITY":"0.00015470","NORAD_CAT_ID":"46146","SEMIMAJOR_AXIS":"6925.326","LAUNCH_DATE":"2020-08-18","PERIAPSIS":"546.120","OBJECT_ID":"2020-057AF","TLE_LINE1":"1 46146U 20057AF  22163.83866732  .00001161  00000-0  96794-4 0  9990"},{"APOAPSIS":"548.321","RA_OF_ASC_NODE":"328.2473","MEAN_MOTION":"15.06397302","TLE_LINE2":"2 46147  53.0571 328.2473 0001587  69.2778 290.8381 15.06397302101452","MEAN_ELEMENT_THEORY":"SGP4","FILE":"3493781","PERIOD":"95.592","MEAN_ANOMALY":"290.8381","BSTAR":"0.00001538600000","MEAN_MOTION_DDOT":"0.0000000000000","CENTER_NAME":"EARTH","ELEMENT_SET_NO":"999","EPOCH":"2022-06-12T19:41:08.881152","DECAY_DATE":null,"COUNTRY_CODE":"US","GP_ID":"206013497","SITE":"AFETR","TLE_LINE1":"1 46147U 20057AG  22163.82024168 -.00000052  00000-0  15386-4 0  9996","LAUNCH_DATE":"2020-08-18","OBJECT_ID":"2020-057AG","PERIAPSIS":"546.123","SEMIMAJOR_AXIS":"6925.357","NORAD_CAT_ID":"46147","ECCENTRICITY":"0.00015870","EPHEMERIS_TYPE":"0","ARG_OF_PERICENTER":"69.2778","MEAN_MOTION_DOT":"-0.00000052","CLASSIFICATION_TYPE":"U","OBJECT_TYPE":"PAYLOAD","INCLINATION":"53.0571","REV_AT_EPOCH":"10145","TIME_SYSTEM":"UTC","REF_FRAME":"TEME","RCS_SIZE":"LARGE","OBJECT_NAME":"STARLINK-1611"},{"MEAN_MOTION":"15.06399908","RA_OF_ASC_NODE":"308.2283","APOAPSIS":"548.295","CENTER_NAME":"EARTH","MEAN_MOTION_DDOT":"0.0000000000000","BSTAR":"-0.00000085412000","PERIOD":"95.592","MEAN_ANOMALY":"293.7674","FILE":"3493781","MEAN_ELEMENT_THEORY":"SGP4","TLE_LINE2":"2 46148  53.0558 308.2283 0001561  66.3479 293.7674 15.06399908100475","DECAY_DATE":null,"ELEMENT_SET_NO":"999","EPOCH":"2022-06-12T19:49:06.636864","SITE":"AFETR","COUNTRY_CODE":"US","GP_ID":"206012250","SEMIMAJOR_AXIS":"6925.349","LAUNCH_DATE":"2020-08-18","PERIAPSIS":"546.133","OBJECT_ID":"2020-057AH","TLE_LINE1":"1 46148U 20057AH  22163.82577126 -.00000294  00000-0 -85412-6 0  9992","EPHEMERIS_TYPE":"0","ECCENTRICITY":"0.00015610","NORAD_CAT_ID":"46148","CLASSIFICATION_TYPE":"U","OBJECT_TYPE":"PAYLOAD","MEAN_MOTION_DOT":"-0.00000294","ARG_OF_PERICENTER":"66.3479","OBJECT_NAME":"STARLINK-1616","RCS_SIZE":"LARGE","REF_FRAME":"TEME","TIME_SYSTEM":"UTC","REV_AT_EPOCH":"10047","INCLINATION":"53.0558"},{"SITE":"AFETR","GP_ID":"205982398","COUNTRY_CODE":"US","DECAY_DATE":null,"ELEMENT_SET_NO":"999","EPOCH":"2022-06-12T20:09:31.632480","MEAN_ANOMALY":"275.1006","PERIOD":"95.562","BSTAR":"0.00372160000000","CENTER_NAME":"EARTH","MEAN_MOTION_DDOT":"0.0000000000000","TLE_LINE2":"2 46149  53.0548 308.1580 0001539  85.0159 275.1006 15.06876660101145","FILE":"3493333","MEAN_ELEMENT_THEORY":"SGP4","MEAN_MOTION":"15.06876660","RA_OF_ASC_NODE":"308.1580","APOAPSIS":"546.819","OBJECT_NAME":"STARLINK-1620","RCS_SIZE":"LARGE","INCLINATION":"53.0548","REF_FRAME":"TEME","TIME_SYSTEM":"UTC","REV_AT_EPOCH":"10114","MEAN_MOTION_DOT":"0.00056320","ARG_OF_PERICENTER":"85.0159","CLASSIFICATION_TYPE":"U","OBJECT_TYPE":"PAYLOAD","ECCENTRICITY":"0.00015390","EPHEMERIS_TYPE":"0","NORAD_CAT_ID":"46149","SEMIMAJOR_AXIS":"6923.888","TLE_LINE1":"1 46149U 20057AJ  22163.83994945  .00056320  00000-0  37216-2 0  9990","PERIAPSIS":"544.687","LAUNCH_DATE":"2020-08-18","OBJECT_ID":"2020-057AJ"}];
